[{"OBJECT_NAME":"COSMO-SKYMED 3","OBJECT_ID":"2008-054A","EPOCH":"2026-03-09T22:03:15.183936","MEAN_MOTION":15.06259488,"ECCENTRICITY":0.00143526,"INCLINATION":97.8419,"RA_OF_ASC_NODE":285.8111,"ARG_OF_PERICENTER":240.3641,"MEAN_ANOMALY":119.6157,"EPHEMERIS_TYPE":0,"CLASSIFICATION_TYPE":"U","NORAD_CAT_ID":33412,"ELEMENT_SET_NO":999,"REV_AT_EPOCH":94199,"BSTAR":0.00061875413,"MEAN_MOTION_DOT":9.042e-5,"MEAN_MOTION_DDOT":0},{"OBJECT_NAME":"STARLINK-34872","OBJECT_ID":"2025-184Z","EPOCH":"2026-03-09T17:36:51.448320","MEAN_MOTION":15.05653697,"ECCENTRICITY":0.00013414,"INCLINATION":97.6023,"RA_OF_ASC_NODE":122.6445,"ARG_OF_PERICENTER":111.5067,"MEAN_ANOMALY":248.6303,"EPHEMERIS_TYPE":0,"CLASSIFICATION_TYPE":"U","NORAD_CAT_ID":65296,"ELEMENT_SET_NO":999,"REV_AT_EPOCH":3130,"BSTAR":0.00022605427,"MEAN_MOTION_DOT":3.203e-5,"MEAN_MOTION_DDOT":0}]
